CTC1_L_00627007-03
1 25643U 23775DR  26037.47810185  .00000000  00000+0  00000-0 0  9995
2 25643  50.0000 180.0000 0000000   0.0000 144.0000  4.14196110    13
CTC1_L_00627007-04
1 25644U 24151KZ  26037.47810185  .00000000  00000+0  00000-0 0  9995
2 25644  50.0000 180.0000 0000000   0.0000 180.0000  4.14196110    14
CTC1_L_00627007-05
1 25645U 22836VP  26037.47810185  .00000000  00000+0  00000-0 0  9994
2 25645  50.0000 180.0000 0000000   0.0000 216.0000  4.14196110    15
CTC1_L_00627007-06
1 25646U 23774GO  26037.47810185  .00000000  00000+0  00000-0 0  9997
2 25646  50.0000 180.0000 0000000   0.0000 252.0000  4.14196110    16
CTC1_L_00627007-07
1 25647U 25741BJ  26037.47810185  .00000000  00000+0  00000-0 0  9994
2 25647  50.0000 180.0000 0000000   0.0000 288.0000  4.14196110    16
CTC1_L_00627007-08
1 25648U 23336FV  26037.47810185  .00000000  00000+0  00000-0 0  9993
2 25648  50.0000 180.0000 0000000   0.0000 324.0000  4.14196110    18
CTC1_L_00627007-09
1 25649U 23864DA  26037.47810185  .00000000  00000+0  00000-0 0  9990
2 25649  50.0000 180.0000 0000000   0.0000   0.0000  4.14196110    10
CTC1_L_00627007-10
1 25650U 24300MF  26037.47810185  .00000000  00000+0  00000-0 0  9998
2 25650  50.0000 180.0000 0000000   0.0000  36.0000  4.14196110    11
CTC1_L_00627008-01
1 25651U 22632EB  26037.47810185  .00000000  00000+0  00000-0 0  9995
2 25651  50.0000 210.0000 0000000   0.0000  84.0000  4.14196110    19
CTC1_L_00627008-02
1 25652U 24367RM  26037.47810185  .00000000  00000+0  00000-0 0  9993
2 25652  50.0000 210.0000 0000000   0.0000 120.0000  4.14196110    11
CTC1_L_00627008-03
1 25653U 26041IR  26037.47810185  .00000000  00000+0  00000-0 0  9995
2 25653  50.0000 210.0000 0000000   0.0000 156.0000  4.14196110    11
CTC1_L_00627008-04
1 25654U 26017HY  26037.47810185  .00000000  00000+0  00000-0 0  9999
2 25654  50.0000 210.0000 0000000   0.0000 192.0000  4.14196110    12
CTC1_L_00627008-05
1 25655U 24519WF  26037.47810185  .00000000  00000+0  00000-0 0  9995
2 25655  50.0000 210.0000 0000000   0.0000 228.0000  4.14196110    13
CTC1_L_00627008-06
1 25656U 26335VB  26037.47810185  .00000000  00000+0  00000-0 0  9994
2 25656  50.0000 210.0000 0000000   0.0000 264.0000  4.14196110    14
CTC1_L_00627008-07
1 25657U 25888L   26037.47810185  .00000000  00000+0  00000-0 0  9997
2 25657  50.0000 210.0000 0000000   0.0000 300.0000  4.14196110    16
CTC1_L_00627008-08
1 25658U 25473IX  26037.47810185  .00000000  00000+0  00000-0 0  9998
2 25658  50.0000 210.0000 0000000   0.0000 336.0000  4.14196110    16
CTC1_L_00627008-09
1 25659U 25675CZ  26037.47810185  .00000000  00000+0  00000-0 0  9993
2 25659  50.0000 210.0000 0000000   0.0000  12.0000  4.14196110    18
CTC1_L_00627008-10
1 25660U 23038PC  26037.47810185  .00000000  00000+0  00000-0 0  9996
2 25660  50.0000 210.0000 0000000   0.0000  48.0000  4.14196110    19
CTC1_L_00627009-01
1 25661U 24029AM  26037.47810185  .00000000  00000+0  00000-0 0  9998
2 25661  50.0000 240.0000 0000000   0.0000  96.0000  4.14196110    16
CTC1_L_00627009-02
1 25662U 25944ZY  26037.47810185  .00000000  00000+0  00000-0 0  9996
2 25662  50.0000 240.0000 0000000   0.0000 132.0000  4.14196110    18
CTC1_L_00627009-03
1 25663U 24841JQ  26037.47810185  .00000000  00000+0  00000-0 0  9992
2 25663  50.0000 240.0000 0000000   0.0000 168.0000  4.14196110    18
CTC1_L_00627009-04
1 25664U 26142AF  26037.47810185  .00000000  00000+0  00000-0 0  9999
2 25664  50.0000 240.0000 0000000   0.0000 204.0000  4.14196110    10
CTC1_L_00627009-05
1 25665U 25247AA  26037.47810185  .00000000  00000+0  00000-0 0  9995
2 25665  50.0000 240.0000 0000000   0.0000 240.0000  4.14196110    11
CTC1_L_00627009-06
1 25666U 23321OK  26037.47810185  .00000000  00000+0  00000-0 0  9997
2 25666  50.0000 240.0000 0000000   0.0000 276.0000  4.14196110    11
CTC1_L_00627009-07
1 25667U 23543TZ  26037.47810185  .00000000  00000+0  00000-0 0  9994
2 25667  50.0000 240.0000 0000000   0.0000 312.0000  4.14196110    13
CTC1_L_00627009-08
1 25668U 23477HE  26037.47810185  .00000000  00000+0  00000-0 0  9991
2 25668  50.0000 240.0000 0000000   0.0000 348.0000  4.14196110    13
CTC1_L_00627009-09
1 25669U 26274BK  26037.47810185  .00000000  00000+0  00000-0 0  9990
2 25669  50.0000 240.0000 0000000   0.0000  24.0000  4.14196110    15
CTC1_L_00627009-10
1 25670U 25894NV  26037.47810185  .00000000  00000+0  00000-0 0  9999
2 25670  50.0000 240.0000 0000000   0.0000  60.0000  4.14196110    17
CTC1_L_00627010-01
1 25671U 26022DH  26037.47810185  .00000000  00000+0  00000-0 0  9994
2 25671  50.0000 270.0000 0000000   0.0000 108.0000  4.14196110    14
CTC1_L_00627010-02
1 25672U 24038IW  26037.47810185  .00000000  00000+0  00000-0 0  9990
2 25672  50.0000 270.0000 0000000   0.0000 144.0000  4.14196110    15
CTC1_L_00627010-03
1 25673U 25756US  26037.47810185  .00000000  00000+0  00000-0 0  9999
2 25673  50.0000 270.0000 0000000   0.0000 180.0000  4.14196110    16
CTC1_L_00627010-04
1 25674U 25626QJ  26037.47810185  .00000000  00000+0  00000-0 0  9996
2 25674  50.0000 270.0000 0000000   0.0000 216.0000  4.14196110    17
CTC1_L_00627010-05
1 25675U 22487FJ  26037.47810185  .00000000  00000+0  00000-0 0  9999
2 25675  50.0000 270.0000 0000000   0.0000 252.0000  4.14196110    18
CTC1_L_00627010-06
1 25676U 23121GT  26037.47810185  .00000000  00000+0  00000-0 0  9996
2 25676  50.0000 270.0000 0000000   0.0000 288.0000  4.14196110    18
CTC1_L_00627010-07
1 25677U 25731PM  26037.47810185  .00000000  00000+0  00000-0 0  9996
2 25677  50.0000 270.0000 0000000   0.0000 324.0000  4.14196110    10
CTC1_L_00627010-08
1 25678U 26873BS  26037.47810185  .00000000  00000+0  00000-0 0  9995
2 25678  50.0000 270.0000 0000000   0.0000   0.0000  4.14196110    12
CTC1_L_00627010-09
1 25679U 23565IB  26037.47810185  .00000000  00000+0  00000-0 0  9991
2 25679  50.0000 270.0000 0000000   0.0000  36.0000  4.14196110    12
CTC1_L_00627010-10
1 25680U 26980X   26037.47810185  .00000000  00000+0  00000-0 0  9997
2 25680  50.0000 270.0000 0000000   0.0000  72.0000  4.14196110    14
CTC1_L_00627011-01
1 25681U 25101PB  26037.47810185  .00000000  00000+0  00000-0 0  9992
2 25681  50.0000 300.0000 0000000   0.0000 120.0000  4.14196110    13
CTC1_L_00627011-02
1 25682U 23469RR  26037.47810185  .00000000  00000+0  00000-0 0  9998
2 25682  50.0000 300.0000 0000000   0.0000 156.0000  4.14196110    13
CTC1_L_00627011-03
1 25683U 24152VG  26037.47810185  .00000000  00000+0  00000-0 0  9999
2 25683  50.0000 300.0000 0000000   0.0000 192.0000  4.14196110    14
CTC1_L_00627011-04
1 25684U 22642BY  26037.47810185  .00000000  00000+0  00000-0 0  9992
2 25684  50.0000 300.0000 0000000   0.0000 228.0000  4.14196110    15
CTC1_L_00627011-05
1 25685U 25382WP  26037.47810185  .00000000  00000+0  00000-0 0  9997
2 25685  50.0000 300.0000 0000000   0.0000 264.0000  4.14196110    16
CTC1_L_00627011-06
1 25686U 24683H   26037.47810185  .00000000  00000+0  00000-0 0  9991
2 25686  50.0000 300.0000 0000000   0.0000 300.0000  4.14196110    18
CTC1_L_00627011-07
1 25687U 23816LQ  26037.47810185  .00000000  00000+0  00000-0 0  9999
2 25687  50.0000 300.0000 0000000   0.0000 336.0000  4.14196110    18
CTC1_L_00627011-08
1 25688U 26368WY  26037.47810185  .00000000  00000+0  00000-0 0  9995
2 25688  50.0000 300.0000 0000000   0.0000  12.0000  4.14196110    10
CTC1_L_00627011-09
1 25689U 25039DE  26037.47810185  .00000000  00000+0  00000-0 0  9990
2 25689  50.0000 300.0000 0000000   0.0000  48.0000  4.14196110    10
CTC1_L_00627011-10
1 25690U 22827UH  26037.47810185  .00000000  00000+0  00000-0 0  9994
2 25690  50.0000 300.0000 0000000   0.0000  84.0000  4.14196110    12
CTC1_L_00627012-01
1 25691U 25764AK  26037.47810185  .00000000  00000+0  00000-0 0  9998
2 25691  50.0000 330.0000 0000000   0.0000 132.0000  4.14196110    10
CTC1_L_00627012-02
1 25692U 22049XX  26037.47810185  .00000000  00000+0  00000-0 0  9992
2 25692  50.0000 330.0000 0000000   0.0000 168.0000  4.14196110    10
CTC1_L_00627012-03
1 25693U 26667A   26037.47810185  .00000000  00000+0  00000-0 0  9993
2 25693  50.0000 330.0000 0000000   0.0000 204.0000  4.14196110    12
CTC1_L_00627012-04
1 25694U 23373HO  26037.47810185  .00000000  00000+0  00000-0 0  9995
2 25694  50.0000 330.0000 0000000   0.0000 240.0000  4.14196110    13
CTC1_L_00627012-05
1 25695U 22663QA  26037.47810185  .00000000  00000+0  00000-0 0  9997
2 25695  50.0000 330.0000 0000000   0.0000 276.0000  4.14196110    13
CTC1_L_00627012-06
1 25696U 22401VB  26037.47810185  .00000000  00000+0  00000-0 0  9998
2 25696  50.0000 330.0000 0000000   0.0000 312.0000  4.14196110    15
CTC1_L_00627012-07
1 25697U 26436EY  26037.47810185  .00000000  00000+0  00000-0 0  9991
2 25697  50.0000 330.0000 0000000   0.0000 348.0000  4.14196110    15
CTC1_L_00627012-08
1 25698U 24619HA  26037.47810185  .00000000  00000+0  00000-0 0  9993
2 25698  50.0000 330.0000 0000000   0.0000  24.0000  4.14196110    17
CTC1_L_00627012-09
1 25699U 26251JQ  26037.47810185  .00000000  00000+0  00000-0 0  9998
2 25699  50.0000 330.0000 0000000   0.0000  60.0000  4.14196110    18
CTC1_L_00627012-10
1 25700U 22822IA  26037.47810185  .00000000  00000+0  00000-0 0  9991
2 25700  50.0000 330.0000 0000000   0.0000  96.0000  4.14196110    10
